{
  "type": "FeatureCollection",
  "features": [
    {
      "type": "Feature",
      "properties": {
        "norad_id": 37238,
        "name": "INTELSAT 17 (IS-17)",
        "group": "intelsat",
        "lat": -0.02093088763153064,
        "lon": -108.14032227560725,
        "alt_km": 35775.729835427424,
        "timestamp": "2025-12-11T07:02:23.401526+00:00",
        "meta_object_name": "INTELSAT 17 (IS-17)",
        "meta_object_id": "2010-065B",
        "meta_epoch": "2025-12-10T21:03:22.035168",
        "meta_mean_motion": 1.00271659,
        "meta_eccentricity": 0.0002473,
        "meta_inclination": 0.0119,
        "meta_ra_of_asc_node": 292.6881,
        "meta_arg_of_pericenter": 326.9359,
        "meta_mean_anomaly": 202.0778,
        "meta_ephemeris_type": 0,
        "meta_classification_type": "U",
        "meta_norad_cat_id": 37238,
        "meta_element_set_no": 999,
        "meta_rev_at_epoch": 5136,
        "meta_bstar": 0,
        "meta_mean_motion_dot": 3e-08,
        "meta_mean_motion_ddot": 0,
        "tle_line1": "1 37238U 10065B   25344.87733837  .00000003  00000+0  00000+0 0  9990",
        "tle_line2": "2 37238   0.0119 292.6881 0002473 326.9359 202.0778  1.00271659 51367"
      },
      "geometry": {
        "type": "Point",
        "coordinates": [
          -108.14032227560725,
          -0.02093088763153064
        ]
      }
    },
    {
      "type": "Feature",
      "properties": {
        "norad_id": 37392,
        "name": "INTELSAT 28 (IS-28)",
        "group": "intelsat",
        "lat": 1.236063216477311,
        "lon": 154.10765693479533,
        "alt_km": 35791.72076504945,
        "timestamp": "2025-12-11T07:02:23.401537+00:00",
        "meta_object_name": "INTELSAT 28 (IS-28)",
        "meta_object_id": "2011-016A",
        "meta_epoch": "2025-12-10T20:14:22.587936",
        "meta_mean_motion": 1.00272064,
        "meta_eccentricity": 0.00039178,
        "meta_inclination": 1.32,
        "meta_ra_of_asc_node": 85.0809,
        "meta_arg_of_pericenter": 179.7187,
        "meta_mean_anomaly": 86.9102,
        "meta_ephemeris_type": 0,
        "meta_classification_type": "U",
        "meta_norad_cat_id": 37392,
        "meta_element_set_no": 999,
        "meta_rev_at_epoch": 5139,
        "meta_bstar": 0,
        "meta_mean_motion_dot": -2.2e-06,
        "meta_mean_motion_ddot": 0,
        "tle_line1": "1 37392U 11016A   25344.84331699 -.00000220  00000+0  00000+0 0  9997",
        "tle_line2": "2 37392   1.3200  85.0809 0003917 179.7187  86.9102  1.00272064 51398"
      },
      "geometry": {
        "type": "Point",
        "coordinates": [
          154.10765693479533,
          1.236063216477311
        ]
      }
    },
    {
      "type": "Feature",
      "properties": {
        "norad_id": 37834,
        "name": "INTELSAT 18 (IS-18)",
        "group": "intelsat",
        "lat": 0.019991577217152657,
        "lon": 5.869176594273512,
        "alt_km": 35787.4425921163,
        "timestamp": "2025-12-11T07:02:23.401549+00:00",
        "meta_object_name": "INTELSAT 18 (IS-18)",
        "meta_object_id": "2011-056A",
        "meta_epoch": "2025-12-10T14:23:51.194976",
        "meta_mean_motion": 1.00271736,
        "meta_eccentricity": 0.00019912,
        "meta_inclination": 0.0186,
        "meta_ra_of_asc_node": 329.247,
        "meta_arg_of_pericenter": 297.0867,
        "meta_mean_anomaly": 209.1989,
        "meta_ephemeris_type": 0,
        "meta_classification_type": "U",
        "meta_norad_cat_id": 37834,
        "meta_element_set_no": 999,
        "meta_rev_at_epoch": 5192,
        "meta_bstar": 0,
        "meta_mean_motion_dot": 5.7e-07,
        "meta_mean_motion_ddot": 0,
        "tle_line1": "1 37834U 11056A   25344.59989809  .00000057  00000+0  00000+0 0  9993",
        "tle_line2": "2 37834   0.0186 329.2470 0001991 297.0867 209.1989  1.00271736 51920"
      },
      "geometry": {
        "type": "Point",
        "coordinates": [
          5.869176594273512,
          0.019991577217152657
        ]
      }
    },
    {
      "type": "Feature",
      "properties": {
        "norad_id": 38098,
        "name": "INTELSAT 22 (IS-22)",
        "group": "intelsat",
        "lat": -0.019941967419052662,
        "lon": -102.03143559907248,
        "alt_km": 35779.07969883961,
        "timestamp": "2025-12-11T07:02:23.401561+00:00",
        "meta_object_name": "INTELSAT 22 (IS-22)",
        "meta_object_id": "2012-011A",
        "meta_epoch": "2025-12-10T21:10:10.225920",
        "meta_mean_motion": 1.00271186,
        "meta_eccentricity": 0.00017194,
        "meta_inclination": 0.0021,
        "meta_ra_of_asc_node": 355.6086,
        "meta_arg_of_pericenter": 272.2396,
        "meta_mean_anomaly": 201.6682,
        "meta_ephemeris_type": 0,
        "meta_classification_type": "U",
        "meta_norad_cat_id": 38098,
        "meta_element_set_no": 999,
        "meta_rev_at_epoch": 530,
        "meta_bstar": 0,
        "meta_mean_motion_dot": -5.4e-07,
        "meta_mean_motion_ddot": 0,
        "tle_line1": "1 38098U 12011A   25344.88206280 -.00000054  00000+0  00000+0 0  9993",
        "tle_line2": "2 38098   0.0021 355.6086 0001719 272.2396 201.6682  1.00271186  5304"
      },
      "geometry": {
        "type": "Point",
        "coordinates": [
          -102.03143559907248,
          -0.019941967419052662
        ]
      }
    },
    {
      "type": "Feature",
      "properties": {
        "norad_id": 38356,
        "name": "INTELSAT 19 (IS-19)",
        "group": "intelsat",
        "lat": 0.00702010426987203,
        "lon": -8.102846945605894,
        "alt_km": 35784.431276075535,
        "timestamp": "2025-12-11T07:02:23.401578+00:00",
        "meta_object_name": "INTELSAT 19 (IS-19)",
        "meta_object_id": "2012-030A",
        "meta_epoch": "2025-12-10T19:28:04.522944",
        "meta_mean_motion": 1.00272034,
        "meta_eccentricity": 0.0003484,
        "meta_inclination": 0.0092,
        "meta_ra_of_asc_node": 336.1413,
        "meta_arg_of_pericenter": 291.9303,
        "meta_mean_anomaly": 269.7352,
        "meta_ephemeris_type": 0,
        "meta_classification_type": "U",
        "meta_norad_cat_id": 38356,
        "meta_element_set_no": 999,
        "meta_rev_at_epoch": 4856,
        "meta_bstar": 0,
        "meta_mean_motion_dot": -5.1e-07,
        "meta_mean_motion_ddot": 0,
        "tle_line1": "1 38356U 12030A   25344.81116346 -.00000051  00000+0  00000+0 0  9994",
        "tle_line2": "2 38356   0.0092 336.1413 0003484 291.9303 269.7352  1.00272034 48561"
      },
      "geometry": {
        "type": "Point",
        "coordinates": [
          -8.102846945605894,
          0.00702010426987203
        ]
      }
    },
    {
      "type": "Feature",
      "properties": {
        "norad_id": 38740,
        "name": "INTELSAT 20 (IS-20)",
        "group": "intelsat",
        "lat": -0.007642409619341913,
        "lon": -105.60481329175863,
        "alt_km": 35779.7541182333,
        "timestamp": "2025-12-11T07:02:23.401592+00:00",
        "meta_object_name": "INTELSAT 20 (IS-20)",
        "meta_object_id": "2012-043A",
        "meta_epoch": "2025-12-10T20:36:25.339968",
        "meta_mean_motion": 1.0027642,
        "meta_eccentricity": 0.00027491,
        "meta_inclination": 0.0128,
        "meta_ra_of_asc_node": 86.5275,
        "meta_arg_of_pericenter": 103.4146,
        "meta_mean_anomaly": 267.5009,
        "meta_ephemeris_type": 0,
        "meta_classification_type": "U",
        "meta_norad_cat_id": 38740,
        "meta_element_set_no": 999,
        "meta_rev_at_epoch": 4886,
        "meta_bstar": 0,
        "meta_mean_motion_dot": -2.1e-07,
        "meta_mean_motion_ddot": 0,
        "tle_line1": "1 38740U 12043A   25344.85862662 -.00000021  00000+0  00000+0 0  9995",
        "tle_line2": "2 38740   0.0128  86.5275 0002749 103.4146 267.5009  1.00276420 48866"
      },
      "geometry": {
        "type": "Point",
        "coordinates": [
          -105.60481329175863,
          -0.007642409619341913
        ]
      }
    },
    {
      "type": "Feature",
      "properties": {
        "norad_id": 38749,
        "name": "INTELSAT 21 (IS-21)",
        "group": "intelsat",
        "lat": 0.022986916743863415,
        "lon": 127.82474476293629,
        "alt_km": 35792.333050687994,
        "timestamp": "2025-12-11T07:02:23.401603+00:00",
        "meta_object_name": "INTELSAT 21 (IS-21)",
        "meta_object_id": "2012-045A",
        "meta_epoch": "2025-12-10T20:06:53.306208",
        "meta_mean_motion": 1.00270049,
        "meta_eccentricity": 0.00020905,
        "meta_inclination": 0.0183,
        "meta_ra_of_asc_node": 54.0529,
        "meta_arg_of_pericenter": 203.9968,
        "meta_mean_anomaly": 65.4761,
        "meta_ephemeris_type": 0,
        "meta_classification_type": "U",
        "meta_norad_cat_id": 38749,
        "meta_element_set_no": 999,
        "meta_rev_at_epoch": 4863,
        "meta_bstar": 0,
        "meta_mean_motion_dot": -2.8e-06,
        "meta_mean_motion_ddot": 0,
        "tle_line1": "1 38749U 12045A   25344.83811697 -.00000280  00000+0  00000+0 0  9993",
        "tle_line2": "2 38749   0.0183  54.0529 0002090 203.9968  65.4761  1.00270049 48631"
      },
      "geometry": {
        "type": "Point",
        "coordinates": [
          127.82474476293629,
          0.022986916743863415
        ]
      }
    }
  ]
}